1 45188U 20012L   23025.43825698  .00001854  00000-0  14333-3 0  9993
2 45188  53.0537  80.9117 0001185  94.7653 265.3471 15.06398096163630
1 45188U 20012L   23026.16807318  .00001194  00000-0  99015-4 0  9991
2 45188  53.0543  77.6360 0001181  97.3184 262.7939 15.06397426162808
1 45188U 20012L   23026.36711175  .00001756  00000-0  13672-3 0  9996
2 45188  53.0543  76.7422 0001176  95.8342 264.2781 15.06401231163779
1 45188U 20012L   23027.49500830  .00001234  00000-0  10174-3 0  9990
2 45188  53.0545  71.6792 0001307  90.4528 269.6610 15.06402514163942
1 45188U 20012L   23027.49500830  .00001234  00000-0  10174-3 0  9990
2 45188  53.0545  71.6792 0001307  90.4528 269.6610 15.06402514163009
1 45188U 20012L   23027.82674211  .00001558  00000-0  12345-3 0  9993
2 45188  53.0547  70.1900 0001180  87.6458 272.4666 15.06402339163991
1 45188U 20012L   23028.49020109 -.00000586  00000-0 -20401-4 0  9993
2 45188  53.0545  67.2102 0001510 100.3243 259.7916 15.06418121164096
1 45188U 20012L   23028.49020109 -.00000586  00000-0 -20401-4 0  9993
2 45188  53.0545  67.2102 0001510 100.3243 259.7916 15.06418121163152
1 45188U 20012L   23028.82194351  .00000888  00000-0  78511-4 0  9999
2 45188  53.0552  65.7213 0001378  84.9036 275.2111 15.06401094164146
1 45188U 20012L   23028.82194351  .00000888  00000-0  78511-4 0  9999
2 45188  53.0552  65.7213 0001378  84.9036 275.2111 15.06401094163202
1 45188U 20012L   23029.81715211  .00000030  00000-0  20883-4 0  9991
2 45188  53.0542  61.2530 0001422  86.6542 273.4610 15.06396325164299
1 45188U 20012L   23030.21523168  .00000377  00000-0  44185-4 0  9990
2 45188  53.0543  59.4658 0001245  87.9662 272.1469 15.06396613163411
1 45188U 20012L   23030.48061518  .00000197  00000-0  32117-4 0  9997
2 45188  53.0546  58.2743 0001257  87.0373 273.0760 15.06402679164391
1 45188U 20012L   23031.27678098  .00001352  00000-0  10967-3 0  9994
2 45188  53.0545  54.7002 0001247  91.4194 268.6938 15.06395649164517
1 45188U 20012L   23031.27678098  .00001352  00000-0  10967-3 0  9994
2 45188  53.0545  54.7002 0001247  91.4194 268.6938 15.06395649163572
1 45188U 20012L   23031.74120762  .00001167  00000-0  97193-4 0  9997
2 45188  53.0547  52.6151 0001242  91.0754 269.0377 15.06398539164584
